[Satellite]
VERSION=1.1
NAME=GLOBALSTAR M080 [+]
NICKNAME=GLOBALSTAR M080 [+]
TLE1=1 38041U 11080B   15055.22362894 -.00000094  00000-0  54375-4 0  9990
TLE2=2 38041  52.0081 353.7723 0000316 134.4868  13.1116 12.62265802147333
